{"type":"FeatureCollection","features":[{"type":"Feature","properties":{"name":"Johor","code":"MY-01"},"geometry":{"type":"Polygon","coordinates":[[[102.4893989,2.0990036],[102.7077688,1.8535235],[102.8305968,1.8517246],[102.9421358,1.7406237],[103.0010916,1.7394213],[103.1672666,1.6329175],[103.271086,1.5917509],[103.367675,1.5286489],[103.4469029,1.321587],[103.5146271,1.3056006],[103.5907814,1.3300641],[103.6742407,1.4396872],[103.7951654,1.4851906],[103.8864963,1.4382662],[103.9600197,1.4263957],[104.0600451,1.4507916],[104.1412138,1.3415012],[104.2036783,1.3389577],[104.294748,1.4469016],[104.2541138,1.5652507],[104.2491662,1.6484312],[104.216103,1.6936717],[104.1516888,1.8473571],[104.1087214,1.8776569],[104.1154089,1.964479],[103.9642453,2.1999298],[103.938944,2.3409094],[103.8399623,2.4353552],[103.8149941,2.57119],[103.7578606,2.6244157],[103.6350893,2.6654762],[103.6037357,2.5859607],[103.6381176,2.4849607],[103.6094479,2.457941],[103.3536313,2.5911675],[103.1515781,2.5236058],[102.9731066,2.5946505],[102.802074,2.7993649],[102.7001786,2.8320519],[102.6089136,2.5637725],[102.6187572,2.4738742],[102.5943828,2.4095606],[102.5153197,2.3560638],[102.4813958,2.1803605],[102.4893989,2.0990036]]]}},{"type":"Feature","properties":{"name":"Kedah","code":"MY-02"},"geometry":{"type":"MultiPolygon","coordinates":[[[[100.1953576,6.2543839],[100.2630066,6.1752756],[100.2861327,6.0946799],[100.3480097,5.9764168],[100.3675458,5.8175008],[100.3397858,5.5776534],[100.5240641,5.5585086],[100.5241038,5.3710254],[100.5503058,5.142857],[100.4921998,5.1328951],[100.5587788,5.0795651],[100.6605586,5.1830918],[100.7564012,5.319586],[100.8483952,5.3509031],[100.8674934,5.4694988],[100.9282132,5.5072193],[100.9894814,5.7839133],[101.037068,5.918044],[101.086802,5.910897],[101.126671,6.192645],[101.0943,6.260441],[101.014806,6.246803],[100.984145,6.278844],[100.903976,6.233788],[100.835151,6.296543],[100.81258,6.442185],[100.739371,6.492066],[100.662366,6.451027],[100.4961997,6.5212817],[100.366784,6.5395792],[100.3630019,6.4542178],[100.3046416,6.4068953],[100.2060962,6.290933],[100.1953576,6.2543839]]],[[[99.6405954,6.4336903],[99.6533383,6.3626844],[99.7132769,6.360688],[99.7313928,6.2679339],[99.8392241,6.3256228],[99.9146831,6.3462777],[99.8446513,6.4695968],[99.7926361,6.4247068],[99.6405954,6.4336903]]]]}},{"type":"Feature","properties":{"name":"Kelantan","code":"MY-03"},"geometry":{"type":"Polygon","coordinates":[[[102.5360047,5.8460173],[102.4591184,5.9364297],[102.3451977,6.1685366],[102.2418819,6.2161872],[102.0802925,6.2253713],[102.087413,6.1409869],[102.0520401,6.0784986],[101.9426496,5.9810941],[101.9440243,5.8724731],[101.793318,5.750665],[101.753589,5.797072],[101.691667,5.754973],[101.6585,5.6633489],[101.6866787,5.5867532],[101.6553643,5.5203797],[101.7483636,5.501319],[101.7369995,5.3520755],[101.6956208,5.3316038],[101.608289,5.3477482],[101.5219084,5.2658497],[101.4854357,5.1738372],[101.4453632,4.9592968],[101.4539936,4.8939088],[101.3994122,4.8339123],[101.3792784,4.7085069],[101.3338705,4.6849817],[101.3739276,4.614083],[101.451823,4.5747842],[101.501165,4.6099922],[101.6235125,4.5463085],[101.6739967,4.594953],[101.764469,4.6223622],[101.7793581,4.7591349],[101.8474937,4.688215],[101.9387274,4.6594643],[101.9500409,4.7575643],[102.0437321,4.7263906],[102.0948117,4.7588916],[102.221766,4.6274378],[102.2715847,4.6615861],[102.3325099,4.637929],[102.371486,4.6913993],[102.4455057,4.7128575],[102.501074,4.6680943],[102.5946238,4.7380567],[102.6576767,4.7617331],[102.6511859,4.8454637],[102.5729301,4.8935777],[102.5051866,4.9019524],[102.5063636,5.0846615],[102.4148468,5.2288882],[102.4293189,5.3689039],[102.3837629,5.4156544],[102.4058915,5.5533396],[102.3799379,5.6919878],[102.5360047,5.8460173]]]}},{"type":"Feature","properties":{"name":"Kuala Lumpur","code":"MY-14"},"geometry":{"type":"Polygon","coordinates":[[[101.615081,3.1534803],[101.6596906,3.1145888],[101.6712413,3.0420981],[101.7495919,3.0549719],[101.7355862,3.1375374],[101.7568938,3.197049],[101.6573446,3.2360233],[101.615081,3.1534803]]]}},{"type":"Feature","properties":{"name":"Labuan","code":"MY-15"},"geometry":{"type":"Polygon","coordinates":[[[115.2489945,5.2731834],[115.2307262,5.3835992],[115.1721708,5.2806389],[115.2489945,5.2731834]]]}},{"type":"Feature","properties":{"name":"Malacca","code":"MY-04"},"geometry":{"type":"Polygon","coordinates":[[[101.9734161,2.3910722],[102.0600455,2.3376691],[102.1543817,2.2167583],[102.3724172,2.1332358],[102.4893989,2.0990036],[102.4813958,2.1803605],[102.5153197,2.3560638],[102.5943828,2.4095606],[102.4350555,2.4566864],[102.368262,2.4893683],[102.2795893,2.4582806],[102.1788418,2.4980802],[101.9734161,2.3910722]]]}},{"type":"Feature","properties":{"name":"Negeri Sembilan","code":"MY-05"},"geometry":{"type":"Polygon","coordinates":[[[101.7124503,2.5953285],[101.7724504,2.5957347],[101.8471037,2.4810978],[101.8565682,2.416224],[101.8588051,2.4141246],[101.9322732,2.4244619],[101.9734161,2.3910722],[102.1788418,2.4980802],[102.2795893,2.4582806],[102.368262,2.4893683],[102.4350555,2.4566864],[102.5943828,2.4095606],[102.6187572,2.4738742],[102.6089136,2.5637725],[102.7001786,2.8320519],[102.6950153,2.8730459],[102.4842706,3.007737],[102.3894164,3.1172152],[102.0980805,3.1915052],[102.0441724,3.225726],[101.9150216,3.2567889],[101.9515174,3.213712],[101.9478152,3.0238738],[101.8828958,2.8669251],[101.7514919,2.8694599],[101.762124,2.7029498],[101.7124503,2.5953285]]]}},{"type":"Feature","properties":{"name":"Pahang","code":"MY-06"},"geometry":{"type":"Polygon","coordinates":[[[103.6350893,2.6654762],[103.5287544,2.7661016],[103.4555817,2.8600502],[103.4320455,2.9271555],[103.4470484,3.2054013],[103.4235338,3.3562913],[103.4749804,3.5220726],[103.3657599,3.6508121],[103.3257129,3.7520935],[103.3737141,3.8028624],[103.3682142,3.9162128],[103.4297149,3.9853205],[103.3860437,4.0943823],[103.444368,4.186782],[103.3179063,4.1944073],[103.3042918,4.1200197],[103.3338886,3.9682711],[103.2048466,4.0556629],[103.1657789,4.0438537],[103.1148724,4.1005361],[102.9852385,4.1424548],[102.9301885,4.1188389],[102.8976321,4.1578048],[102.9301885,4.298302],[103.0219385,4.4210683],[102.9751756,4.4842143],[102.9183498,4.4712314],[102.8544208,4.4989672],[102.8745466,4.5827582],[102.8485014,4.6718491],[102.7230111,4.6942676],[102.6576767,4.7617331],[102.5946238,4.7380567],[102.501074,4.6680943],[102.4455057,4.7128575],[102.371486,4.6913993],[102.3325099,4.637929],[102.2715847,4.6615861],[102.221766,4.6274378],[102.0948117,4.7588916],[102.0437321,4.7263906],[101.9500409,4.7575643],[101.9387274,4.6594643],[101.8474937,4.688215],[101.7793581,4.7591349],[101.764469,4.6223622],[101.6739967,4.594953],[101.6235125,4.5463085],[101.501165,4.6099922],[101.451823,4.5747842],[101.3739276,4.614083],[101.3509441,4.5715306],[101.3587448,4.4842229],[101.3346334,4.4329646],[101.4356885,4.3873593],[101.4615727,4.2133976],[101.5718468,4.0821934],[101.5718468,3.8964905],[101.5895758,3.7949554],[101.6247931,3.7724706],[101.6932331,3.7080967],[101.7298445,3.7127559],[101.8152116,3.5942864],[101.763178,3.5081899],[101.7854225,3.4314349],[101.7593359,3.3715778],[101.8294486,3.2913647],[101.9150216,3.2567889],[102.0441724,3.225726],[102.0980805,3.1915052],[102.3894164,3.1172152],[102.4842706,3.007737],[102.6950153,2.8730459],[102.7001786,2.8320519],[102.802074,2.7993649],[102.9731066,2.5946505],[103.1515781,2.5236058],[103.3536313,2.5911675],[103.6094479,2.457941],[103.6381176,2.4849607],[103.6037357,2.5859607],[103.6350893,2.6654762]]]}},{"type":"Feature","properties":{"name":"Penang","code":"MY-07"},"geometry":{"type":"MultiPolygon","coordinates":[[[[100.3397858,5.5776534],[100.377089,5.498096],[100.3633477,5.3995895],[100.4046945,5.3376764],[100.4249316,5.1724501],[100.3888569,5.1285836],[100.4921998,5.1328951],[100.5503058,5.142857],[100.5241038,5.3710254],[100.5240641,5.5585086],[100.3397858,5.5776534]]],[[[100.1752005,5.4716028],[100.1960506,5.3087489],[100.2909323,5.2798626],[100.3118755,5.3357549],[100.3145085,5.4610227],[100.2559747,5.4828304],[100.1752005,5.4716028]]]]}},{"type":"Feature","properties":{"name":"Perak","code":"MY-08"},"geometry":{"type":"Polygon","coordinates":[[[100.3888569,5.1285836],[100.3636311,5.0991862],[100.4275648,4.9397931],[100.5468463,4.8829546],[100.5573773,4.794307],[100.6172015,4.554724],[100.6184319,4.4596695],[100.5853543,4.4238079],[100.5582076,4.3119765],[100.5857023,4.2947742],[100.6139396,4.1673398],[100.6634591,4.1701088],[100.7627415,4.0862476],[100.7605447,4.0173858],[100.7040323,3.9885801],[100.7065274,3.8996098],[100.77203,3.8461194],[100.8294804,3.8497019],[100.9306116,3.8688824],[100.991939,3.8004982],[101.0752456,3.7595023],[101.2448984,3.7196399],[101.2545837,3.6713312],[101.339894,3.6924346],[101.3266014,3.7837102],[101.3632175,3.8044059],[101.4595054,3.7164078],[101.5387664,3.6838108],[101.6247931,3.7724706],[101.5895758,3.7949554],[101.5718468,3.8964905],[101.5718468,4.0821934],[101.4615727,4.2133976],[101.4356885,4.3873593],[101.3346334,4.4329646],[101.3587448,4.4842229],[101.3509441,4.5715306],[101.3739276,4.614083],[101.3338705,4.6849817],[101.3792784,4.7085069],[101.3994122,4.8339123],[101.4539936,4.8939088],[101.4453632,4.9592968],[101.4854357,5.1738372],[101.5219084,5.2658497],[101.608289,5.3477482],[101.6956208,5.3316038],[101.7369995,5.3520755],[101.7483636,5.501319],[101.6553643,5.5203797],[101.6866787,5.5867532],[101.6585,5.6633489],[101.691667,5.754973],[101.662355,5.868714],[101.581309,5.934363],[101.484538,5.869929],[101.396906,5.872412],[101.343168,5.809322],[101.276147,5.811551],[101.25999,5.711545],[101.135866,5.612851],[101.119199,5.670307],[100.9894814,5.7839133],[100.9282132,5.5072193],[100.8674934,5.4694988],[100.8483952,5.3509031],[100.7564012,5.319586],[100.6605586,5.1830918],[100.5587788,5.0795651],[100.4921998,5.1328951],[100.3888569,5.1285836]]]}},{"type":"Feature","properties":{"name":"Perlis","code":"MY-09"},"geometry":{"type":"Polygon","coordinates":[[[100.366784,6.5395792],[100.3158202,6.6041633],[100.2901759,6.6887554],[100.17157,6.693759],[100.153772,6.557375],[100.159063,6.480652],[100.1203879,6.4227403],[100.1953576,6.2543839],[100.2060962,6.290933],[100.3046416,6.4068953],[100.3630019,6.4542178],[100.366784,6.5395792]]]}},{"type":"Feature","properties":{"name":"Putrajaya","code":"MY-16"},"geometry":{"type":"Polygon","coordinates":[[[101.6596875,2.8991418],[101.7074963,2.9292504],[101.6706479,2.9704932],[101.6596875,2.8991418]]]}},{"type":"Feature","properties":{"name":"Sabah","code":"MY-12"},"geometry":{"type":"MultiPolygon","coordinates":[[[[117.89968411328557,4.166053763900158],[117.783519,4.2196724],[117.7531322,4.2577082],[117.6805221,4.2645245],[117.6271327,4.2203884],[117.68408029153493,4.16553],[117.89968411328557,4.166053763900158]]],[[[117.0586585,7.1283824],[117.1865295,7.1898219],[117.2620575,7.2054036],[117.262254,7.2767135],[117.294976,7.3253161],[117.2356621,7.3625867],[117.1487322,7.3458764],[117.0608582,7.2922734],[117.0586585,7.1283824]]],[[[115.673859,4.114879],[115.689054,4.174012],[115.766061,4.250636],[115.829596,4.241183],[115.877897,4.391025],[115.928916,4.354971],[116.00607,4.348177],[116.07901,4.276432],[116.180278,4.382551],[116.259405,4.363918],[116.348513,4.391382],[116.432749,4.325673],[116.502714,4.324723],[116.536021,4.375662],[116.619417,4.336219],[116.782078,4.357267],[116.840211,4.327203],[116.898867,4.367039],[116.97351,4.34488],[117.19651,4.335833],[117.242359,4.374063],[117.288987,4.31595],[117.426203,4.232932],[117.441635,4.193575],[117.529338,4.161496],[117.6036151,4.1929966],[117.6523697,4.2542532],[117.6204633,4.3033497],[117.6554254,4.3987536],[117.8037022,4.329441],[117.8782431,4.2457657],[117.99725,4.2225],[118.12875,4.28675],[118.2235588,4.2971029],[118.3678683,4.3467985],[118.5580725,4.3704139],[118.6435119,4.4407165],[118.6150317,4.4788582],[118.3713592,4.6277469],[118.3107462,4.6295732],[118.23086,4.7039967],[118.1964558,4.7955415],[118.1250081,4.879007],[118.2075894,4.9606199],[118.3036866,4.9651696],[118.3239754,5.0190451],[118.4368622,5.0009361],[118.4752875,4.9233701],[118.5506736,4.9593798],[118.6680336,4.9335195],[118.8630974,4.9923856],[118.9294803,5.0376856],[119.0955269,5.0766882],[119.2148255,5.1394026],[119.2635604,5.2055904],[119.2642039,5.3101156],[119.2434513,5.3863496],[119.1518258,5.4511763],[119.0996301,5.4111306],[119.0264288,5.4021706],[118.9236447,5.4360067],[118.7037343,5.5685005],[118.6563557,5.6257329],[118.3517121,5.8271479],[118.2381667,5.8419682],[118.1522886,5.8023078],[118.1649445,5.7506617],[118.1132745,5.7062526],[118.0592011,5.7206005],[117.9903649,5.6806304],[117.9110574,5.7510033],[117.916312,5.8000128],[118.0282845,5.78903],[118.1296277,5.8557654],[118.0599999,5.9184616],[118.0321683,6.0296548],[117.9850866,6.0638941],[117.8479861,5.936597],[117.7581701,5.9392616],[117.7372848,5.8971776],[117.6737128,5.9086505],[117.6790404,5.998141],[117.5937525,6.1947952],[117.6654037,6.2452212],[117.7224308,6.2507155],[117.7203959,6.3685194],[117.7415943,6.425611],[117.6553844,6.4967857],[117.5522159,6.5401058],[117.5149654,6.6272463],[117.4621787,6.5479301],[117.3959549,6.5967053],[117.2912906,6.6146281],[117.2639965,6.7019259],[117.2833942,6.73159],[117.2272609,6.8055717],[117.2555381,6.9388835],[117.1907276,6.9627864],[117.1531649,7.0125964],[117.0587522,6.9740343],[117.03318,6.8942425],[117.0568103,6.8602638],[116.9755943,6.742041],[116.9821912,6.7036402],[116.8596333,6.6161076],[116.8492073,6.5763492],[116.7578596,6.5784071],[116.7551391,6.6284734],[116.8502918,6.7705709],[116.8367111,6.932583],[116.7539972,7.0348372],[116.6291918,6.7799757],[116.6452053,6.7267159],[116.5061451,6.5437788],[116.4852852,6.481677],[116.3118316,6.3587914],[116.1473481,6.1611736],[116.1078766,6.0829838],[116.1089343,6.0008278],[116.0474394,5.955513],[116.0325229,5.8295405],[115.897693,5.7383464],[115.8721079,5.5844159],[115.7664692,5.5306284],[115.6375507,5.5469858],[115.5763827,5.586569],[115.424966,5.4242514],[115.3655243,5.387006],[115.3743146,5.3004205],[115.5204355,5.1957316],[115.5681995,5.1929748],[115.5480091,5.0750745],[115.447617,4.9794313],[115.5160403,4.9595495],[115.5930907,4.9900891],[115.6520875,4.8506307],[115.6554983,4.7852051],[115.5454555,4.592917],[115.5809097,4.5176694],[115.5871415,4.36577],[115.6593352,4.3359613],[115.6412939,4.1488821],[115.673859,4.114879]]],[[[117.4364981,6.6924016],[117.3569757,6.6823978],[117.3992024,6.6189909],[117.4364981,6.6924016]]]]}},{"type":"Feature","properties":{"name":"Sarawak","code":"MY-13"},"geometry":{"type":"MultiPolygon","coordinates":[[[[111.2547145,2.1944121],[111.2827382,2.207706],[111.2767944,2.282836],[111.3275847,2.3915573],[111.261302,2.4177769],[111.1993108,2.3998113],[111.1818442,2.3533954],[111.1913071,2.2340148],[111.2258754,2.2438993],[111.2547145,2.1944121]]],[[[111.3448745,2.3702518],[111.412615,2.3684519],[111.3788323,2.4933784],[111.3839275,2.7367592],[111.3142702,2.7917246],[111.2826869,2.6886926],[111.3119351,2.5226485],[111.3016928,2.4315464],[111.3448745,2.3702518]]],[[[115.447617,4.9794313],[115.3945825,4.9282213],[115.3906412,4.9229053],[115.347061,4.8934329],[115.2443783,4.9172576],[115.1550391,4.9110148],[115.1503829,4.8720382],[115.2374998,4.7958376],[115.2478394,4.7017466],[115.2892362,4.6038398],[115.2722887,4.4477137],[115.3495601,4.3517726],[115.2458203,4.3411775],[115.1554667,4.3830254],[115.112314,4.3723788],[115.0987949,4.4684974],[115.022379,4.7497711],[115.0207621,4.8170552],[114.895572,4.815745],[114.858511,4.797505],[114.775077,4.696096],[114.802287,4.675364],[114.829546,4.429663],[114.877584,4.426556],[114.857749,4.269565],[114.807622,4.149289],[114.718511,4.043715],[114.649205,4.006242],[114.495792,4.146685],[114.454178,4.241829],[114.316447,4.263627],[114.332783,4.348888],[114.260148,4.507013],[114.162201,4.573515],[113.9961519,4.5919689],[113.992544,4.4238662],[113.9467203,4.2860544],[113.8250503,4.1295744],[113.7676464,4.0346119],[113.6839067,3.9449872],[113.5285746,3.818605],[113.4332639,3.7557771],[113.3023298,3.5165785],[113.170489,3.3910914],[113.1547947,3.3487618],[113.0686713,3.2829747],[113.0273529,3.1773095],[112.9236679,3.1129979],[112.7833364,3.0863677],[112.5648038,3.0205015],[112.2814108,2.9628111],[112.139326,2.921828],[111.9232207,2.8780072],[111.6300439,2.8445794],[111.6052687,2.800401],[111.431765,2.6991646],[111.3963201,2.5359898],[111.4113154,2.4279459],[111.4396395,2.3766642],[111.375504,2.3407698],[111.3243174,2.3427379],[111.281882,2.2811896],[111.2899297,2.2195669],[111.2817957,2.1962422],[111.2658975,2.1884959],[111.2433689,2.1951338],[111.2214565,2.2363644],[111.1661589,2.1843797],[111.238085,2.1502435],[111.1660857,1.9468179],[111.0855971,1.7572691],[111.139718,1.67791],[111.0453093,1.6796406],[111.0166419,1.6501273],[111.0009295,1.5392794],[110.9408043,1.5211251],[110.8091033,1.574283],[110.7208693,1.551289],[110.6213654,1.594443],[110.5336464,1.5803722],[110.4629327,1.7378137],[110.4216512,1.6786626],[110.3733256,1.6927105],[110.3316553,1.8037999],[110.2654517,1.7113841],[110.1334903,1.6947351],[109.9645293,1.7005742],[109.8761237,1.7297435],[109.8532927,1.7855072],[109.7044623,1.844186],[109.620415,1.983211],[109.538003,1.926707],[109.586062,1.791916],[109.685538,1.781794],[109.662244,1.618805],[109.827591,1.48148],[109.831961,1.428704],[109.931168,1.424661],[109.979186,1.298646],[110.057681,1.269925],[110.097582,1.197557],[110.192202,1.183033],[110.241385,1.117429],[110.300961,0.995749],[110.394966,0.99668],[110.44599,0.90795],[110.490642,0.876374],[110.594863,0.858002],[110.858154,0.94998],[110.905498,1.02835],[110.995288,1.02838],[111.197587,1.064753],[111.22607,1.087989],[111.405038,1.009402],[111.48916,1.034425],[111.522186,0.958676],[111.667036,1.04281],[111.718987,1.006655],[111.825993,0.985382],[111.934003,1.102841],[112.016272,1.132568],[112.133911,1.137524],[112.15849,1.249731],[112.225809,1.392717],[112.200034,1.437092],[112.435883,1.526331],[112.517103,1.573952],[112.775361,1.561528],[112.840288,1.53729],[112.877438,1.581177],[112.989889,1.579737],[113.057672,1.55877],[113.015152,1.403774],[113.106001,1.444952],[113.180375,1.379902],[113.233562,1.397379],[113.354934,1.359082],[113.419081,1.28549],[113.535486,1.321272],[113.581252,1.306652],[113.63068,1.215974],[113.815076,1.302942],[113.850933,1.387152],[113.975734,1.450053],[114.14945,1.461494],[114.202703,1.421296],[114.249685,1.451171],[114.415813,1.511113],[114.526464,1.441787],[114.585832,1.446654],[114.614981,1.575075],[114.711149,1.671484],[114.694685,1.81063],[114.743725,1.869543],[114.878338,1.914629],[114.806321,2.024383],[114.810469,2.100404],[114.780241,2.144541],[114.799487,2.249359],[114.906042,2.256969],[114.950387,2.35132],[115.095081,2.41123],[115.139652,2.477604],[115.237426,2.505989],[115.172212,2.60527],[115.128156,2.582502],[115.092782,2.69409],[115.141147,2.74432],[115.113873,2.833274],[115.150015,2.908951],[115.249122,2.966703],[115.285465,3.049621],[115.335026,2.973734],[115.397316,2.978911],[115.483276,3.019637],[115.564231,3.171086],[115.524806,3.187969],[115.516172,3.261107],[115.537791,3.362007],[115.57393,3.422168],[115.634404,3.455713],[115.61472,3.544329],[115.576518,3.609401],[115.579651,3.747519],[115.618644,3.842468],[115.581772,3.887916],[115.649914,3.988277],[115.673859,4.114879],[115.6412939,4.1488821],[115.6593352,4.3359613],[115.5871415,4.36577],[115.5809097,4.5176694],[115.5454555,4.592917],[115.6554983,4.7852051],[115.6520875,4.8506307],[115.5930907,4.9900891],[115.5160403,4.9595495],[115.447617,4.9794313]]]]}},{"type":"Feature","properties":{"name":"Selangor","code":"MY-10"},"geometry":{"type":"Polygon","coordinates":[[[100.8294804,3.8497019],[100.8138739,3.784636],[100.8706292,3.7691296],[100.9395737,3.6756055],[100.9766302,3.6700559],[101.0564733,3.5880189],[101.097746,3.4917221],[101.280503,3.2785515],[101.319282,3.1109761],[101.3621134,3.0639049],[101.3725892,2.9643995],[101.2933528,2.837583],[101.4098202,2.8045819],[101.4800002,2.6883438],[101.7124503,2.5953285],[101.762124,2.7029498],[101.7514919,2.8694599],[101.8828958,2.8669251],[101.9478152,3.0238738],[101.9515174,3.213712],[101.9150216,3.2567889],[101.8294486,3.2913647],[101.7593359,3.3715778],[101.7854225,3.4314349],[101.763178,3.5081899],[101.8152116,3.5942864],[101.7298445,3.7127559],[101.6932331,3.7080967],[101.6247931,3.7724706],[101.5387664,3.6838108],[101.4595054,3.7164078],[101.3632175,3.8044059],[101.3266014,3.7837102],[101.339894,3.6924346],[101.2545837,3.6713312],[101.2448984,3.7196399],[101.0752456,3.7595023],[100.991939,3.8004982],[100.9306116,3.8688824],[100.8294804,3.8497019]],[[101.6596875,2.8991418],[101.6706479,2.9704932],[101.7074963,2.9292504],[101.6596875,2.8991418]],[[101.615081,3.1534803],[101.6573446,3.2360233],[101.7568938,3.197049],[101.7355862,3.1375374],[101.7495919,3.0549719],[101.6712413,3.0420981],[101.6596906,3.1145888],[101.615081,3.1534803]]]}},{"type":"Feature","properties":{"name":"Terengganu","code":"MY-11"},"geometry":{"type":"Polygon","coordinates":[[[103.444368,4.186782],[103.490838,4.3303989],[103.4552192,4.3958429],[103.4486029,4.5030383],[103.475413,4.5280429],[103.438248,4.6449475],[103.4471502,4.6973933],[103.4254521,4.8131927],[103.3092057,5.0173243],[103.1086801,5.3960087],[102.9712275,5.5259695],[102.8537473,5.5727561],[102.7148795,5.6819427],[102.6301846,5.7817724],[102.5360047,5.8460173],[102.3799379,5.6919878],[102.4058915,5.5533396],[102.3837629,5.4156544],[102.4293189,5.3689039],[102.4148468,5.2288882],[102.5063636,5.0846615],[102.5051866,4.9019524],[102.5729301,4.8935777],[102.6511859,4.8454637],[102.6576767,4.7617331],[102.7230111,4.6942676],[102.8485014,4.6718491],[102.8745466,4.5827582],[102.8544208,4.4989672],[102.9183498,4.4712314],[102.9751756,4.4842143],[103.0219385,4.4210683],[102.9301885,4.298302],[102.8976321,4.1578048],[102.9301885,4.1188389],[102.9852385,4.1424548],[103.1148724,4.1005361],[103.1657789,4.0438537],[103.2048466,4.0556629],[103.3338886,3.9682711],[103.3042918,4.1200197],[103.3179063,4.1944073],[103.444368,4.186782]]]}}]}